ONEWEB-0531             
1 54146U 22138AK  25328.00733287 -.00000065  00000+0 -19225-3 0  9990
2 54146  87.9187 315.3545 0001368  58.0523 302.0743 13.20768864152225
ONEWEB-0535             
1 54147U 22138AL  25328.07066560  .00000088  00000+0  18692-3 0  9991
2 54147  87.9209 345.7596 0001442  92.9707 267.1591 13.19720626149789
ONEWEB-0536             
1 54148U 22138AM  25327.99473477  .00000094  00000+0  20020-3 0  9996
2 54148  87.9178 315.4019 0001542  53.6709 306.4566 13.20772620152210
ONEWEB-0527             
1 54642U 22166A   25327.88206400  .00000025  00000+0  29111-4 0  9999
2 54642  87.9200 284.9506 0001970  79.2837 280.8519 13.21826141144412
ONEWEB-0528             
1 54643U 22166B   25327.96436101  .00000034  00000+0  50398-4 0  9993
2 54643  87.9198 284.9377 0002023  82.0672 278.0692 13.21825673144436
ONEWEB-0539             
1 54644U 22166C   25327.92650172 -.00000013  00000+0 -62734-4 0  9992
2 54644  87.9197 284.9118 0002006  90.7057 269.4307 13.21823967144423
ONEWEB-0540             
1 54645U 22166D   25327.93322809  .00001021  00000+0  24417-2 0  9999
2 54645  87.9194 284.9478 0001762  88.3823 271.7513 13.21819793144418
ONEWEB-0542             
1 54646U 22166E   25327.93636784 -.00000101  00000+0 -27591-3 0  9997
2 54646  87.9198 284.9061 0001781  95.5785 264.5552 13.21827926144420
